ONEWEB-0063             
1 45448U 20020AA  24030.53516445  .00000267  00000+0  71633-3 0  9998
2 45448  87.8981 193.7164 0001170 106.1816 253.9441 13.11408304188843
ONEWEB-0019             
1 45449U 20020AB  24030.50921382  .00000472  00000+0  12960-2 0  9991
2 45449  87.8984 193.7191 0001383  89.9697 270.1590 13.11417634188682
ONEWEB-0094             
1 45450U 20020AC  24030.44395977  .00000040  00000+0  69715-4 0  9994
2 45450  87.9232 178.6092 0001575 101.8911 258.2397 13.17650880191908
ONEWEB-0087             
1 45451U 20020AD  24030.46535862 -.00000255  00000+0 -75460-3 0  9999
2 45451  87.8974 193.7094 0001674 107.3638 252.7673 13.11414222188722
ONEWEB-0082             
1 45452U 20020AE  24030.46698299 -.00000242  00000+0 -71974-3 0  9996
2 45452  87.8979 193.7059 0001558 101.0149 259.1154 13.11414473188811
ONEWEB-0050             
1 45453U 20020AF  24030.56879258  .00005214  00000+0  40558-3 0  9990
2 45453  87.9972  63.2880 0022109 197.7685 162.2779 15.00901918210987
ONEWEB-0034             
1 45454U 20020AG  24030.48645680 -.00000316  00000+0 -92674-3 0  9998
2 45454  87.8980 193.7207 0001606 102.1476 257.9832 13.11416353188738
ONEWEB-0060             
1 45455U 20020AH  24030.49457992 -.00000095  00000+0 -30427-3 0  9999
2 45455  87.8985 193.7152 0001492 103.5129 256.6165 13.11418548188694
